CTC2_L_00511024-03
1 10186U 25170PJ  26075.70047454  .00000000  00000+0  00000-0 0  9991
2 10186  97.2000 276.0000 0000000   0.0000 228.0000 15.38683946    17
CTC2_L_00511024-04
1 10187U 25834GG  26075.70047454  .00000000  00000+0  00000-0 0  9999
2 10187  97.2000 276.0000 0000000   0.0000 273.0000 15.38683946    18
CTC2_L_00511024-05
1 10188U 26588QP  26075.70047454  .00000000  00000+0  00000-0 0  9997
2 10188  97.2000 276.0000 0000000   0.0000 318.0000 15.38683946    19
CTC2_L_00511024-06
1 10189U 23847GU  26075.70047454  .00000000  00000+0  00000-0 0  9993
2 10189  97.2000 276.0000 0000000   0.0000   3.0000 15.38683946    11
CTC2_L_00511024-07
1 10190U 24164GQ  26075.70047454  .00000000  00000+0  00000-0 0  9998
2 10190  97.2000 276.0000 0000000   0.0000  48.0000 15.38683946    12
CTC2_L_00511024-08
1 10191U 23797YT  26075.70047454  .00000000  00000+0  00000-0 0  9990
2 10191  97.2000 276.0000 0000000   0.0000  93.0000 15.38683946    13
CTC2_L_00511025-01
1 10192U 25629OW  26075.70047454  .00000000  00000+0  00000-0 0  9997
2 10192  97.2000 288.0000 0000000   0.0000 144.0000 15.38683946    14
CTC2_L_00511025-02
1 10193U 24142KH  26075.70047454  .00000000  00000+0  00000-0 0  9997
2 10193  97.2000 288.0000 0000000   0.0000 189.0000 15.38683946    14
CTC2_L_00511025-03
1 10194U 24889FM  26075.70047454  .00000000  00000+0  00000-0 0  9996
2 10194  97.2000 288.0000 0000000   0.0000 234.0000 15.38683946    16
CTC2_L_00511025-04
1 10195U 26473SX  26075.70047454  .00000000  00000+0  00000-0 0  9998
2 10195  97.2000 288.0000 0000000   0.0000 279.0000 15.38683946    16
CTC2_L_00511025-05
1 10196U 22639JY  26075.70047454  .00000000  00000+0  00000-0 0  9999
2 10196  97.2000 288.0000 0000000   0.0000 324.0000 15.38683946    18
CTC2_L_00511025-06
1 10197U 23021CI  26075.70047454  .00000000  00000+0  00000-0 0  9996
2 10197  97.2000 288.0000 0000000   0.0000   9.0000 15.38683946    19
CTC2_L_00511025-07
1 10198U 22126RQ  26075.70047454  .00000000  00000+0  00000-0 0  9992
2 10198  97.2000 288.0000 0000000   0.0000  54.0000 15.38683946    10
CTC2_L_00511025-08
1 10199U 26127NT  26075.70047454  .00000000  00000+0  00000-0 0  9998
2 10199  97.2000 288.0000 0000000   0.0000  99.0000 15.38683946    10
CTC2_L_00511026-01
1 10200U 22304FZ  26075.70047454  .00000000  00000+0  00000-0 0  9994
2 10200  97.2000 300.0000 0000000   0.0000 150.0000 15.38683946    16
CTC2_L_00511026-02
1 10201U 25441ZL  26075.70047454  .00000000  00000+0  00000-0 0  9990
2 10201  97.2000 300.0000 0000000   0.0000 195.0000 15.38683946    16
CTC2_L_00511026-03
1 10202U 23262VO  26075.70047454  .00000000  00000+0  00000-0 0  9990
2 10202  97.2000 300.0000 0000000   0.0000 240.0000 15.38683946    18
CTC2_L_00511026-04
1 10203U 22809EE  26075.70047454  .00000000  00000+0  00000-0 0  9997
2 10203  97.2000 300.0000 0000000   0.0000 285.0000 15.38683946    18
CTC2_L_00511026-05
1 10204U 24505SP  26075.70047454  .00000000  00000+0  00000-0 0  9993
2 10204  97.2000 300.0000 0000000   0.0000 330.0000 15.38683946    10
CTC2_L_00511026-06
1 10205U 24884ZZ  26075.70047454  .00000000  00000+0  00000-0 0  9994
2 10205  97.2000 300.0000 0000000   0.0000  15.0000 15.38683946    11
CTC2_L_00511026-07
1 10206U 24067RR  26075.70047454  .00000000  00000+0  00000-0 0  9998
2 10206  97.2000 300.0000 0000000   0.0000  60.0000 15.38683946    12
CTC2_L_00511026-08
1 10207U 26005ML  26075.70047454  .00000000  00000+0  00000-0 0  9993
2 10207  97.2000 300.0000 0000000   0.0000 105.0000 15.38683946    13
CTC2_L_00511027-01
1 10208U 24603XX  26075.70047454  .00000000  00000+0  00000-0 0  9996
2 10208  97.2000 312.0000 0000000   0.0000 156.0000 15.38683946    13
CTC2_L_00511027-02
1 10209U 26332AP  26075.70047454  .00000000  00000+0  00000-0 0  9998
2 10209  97.2000 312.0000 0000000   0.0000 201.0000 15.38683946    15
CTC2_L_00511027-03
1 10210U 22474DQ  26075.70047454  .00000000  00000+0  00000-0 0  9993
2 10210  97.2000 312.0000 0000000   0.0000 246.0000 15.38683946    16
CTC2_L_00511027-04
1 10211U 25200JZ  26075.70047454  .00000000  00000+0  00000-0 0  9994
2 10211  97.2000 312.0000 0000000   0.0000 291.0000 15.38683946    17
CTC2_L_00511027-05
1 10212U 25160LA  26075.70047454  .00000000  00000+0  00000-0 0  9990
2 10212  97.2000 312.0000 0000000   0.0000 336.0000 15.38683946    18
CTC2_L_00511027-06
1 10213U 22308PG  26075.70047454  .00000000  00000+0  00000-0 0  9992
2 10213  97.2000 312.0000 0000000   0.0000  21.0000 15.38683946    10
CTC2_L_00511027-07
1 10214U 24977JN  26075.70047454  .00000000  00000+0  00000-0 0  9997
2 10214  97.2000 312.0000 0000000   0.0000  66.0000 15.38683946    10
CTC2_L_00511027-08
1 10215U 22038UQ  26075.70047454  .00000000  00000+0  00000-0 0  9994
2 10215  97.2000 312.0000 0000000   0.0000 111.0000 15.38683946    12
CTC2_L_00511028-01
1 10216U 22382IL  26075.70047454  .00000000  00000+0  00000-0 0  9997
2 10216  97.2000 324.0000 0000000   0.0000 162.0000 15.38683946    12
CTC2_L_00511028-02
1 10217U 25484UJ  26075.70047454  .00000000  00000+0  00000-0 0  9994
2 10217  97.2000 324.0000 0000000   0.0000 207.0000 15.38683946    13
CTC2_L_00511028-03
1 10218U 23835PS  26075.70047454  .00000000  00000+0  00000-0 0  9993
2 10218  97.2000 324.0000 0000000   0.0000 252.0000 15.38683946    14
CTC2_L_00511028-04
1 10219U 24915UY  26075.70047454  .00000000  00000+0  00000-0 0  9994
2 10219  97.2000 324.0000 0000000   0.0000 297.0000 15.38683946    14
CTC2_L_00511028-05
1 10220U 23602XS  26075.70047454  .00000000  00000+0  00000-0 0  9998
2 10220  97.2000 324.0000 0000000   0.0000 342.0000 15.38683946    17
CTC2_L_00511028-06
1 10221U 23761ZW  26075.70047454  .00000000  00000+0  00000-0 0  9995
2 10221  97.2000 324.0000 0000000   0.0000  27.0000 15.38683946    18
CTC2_L_00511028-07
1 10222U 22856BB  26075.70047454  .00000000  00000+0  00000-0 0  9990
2 10222  97.2000 324.0000 0000000   0.0000  72.0000 15.38683946    19
CTC2_L_00511028-08
1 10223U 22761ZB  26075.70047454  .00000000  00000+0  00000-0 0  9996
2 10223  97.2000 324.0000 0000000   0.0000 117.0000 15.38683946    10
CTC2_L_00511029-01
1 10224U 23916HS  26075.70047454  .00000000  00000+0  00000-0 0  9990
2 10224  97.2000 336.0000 0000000   0.0000 168.0000 15.38683946    10
CTC2_L_00511029-02
1 10225U 24379GI  26075.70047454  .00000000  00000+0  00000-0 0  9995
2 10225  97.2000 336.0000 0000000   0.0000 213.0000 15.38683946    12
CTC2_L_00511029-03
1 10226U 22205OC  26075.70047454  .00000000  00000+0  00000-0 0  9992
2 10226  97.2000 336.0000 0000000   0.0000 258.0000 15.38683946    12
CTC2_L_00511029-04
1 10227U 22656LT  26075.70047454  .00000000  00000+0  00000-0 0  9993
2 10227  97.2000 336.0000 0000000   0.0000 303.0000 15.38683946    14
CTC2_L_00511029-05
1 10228U 26779GD  26075.70047454  .00000000  00000+0  00000-0 0  9994
2 10228  97.2000 336.0000 0000000   0.0000 348.0000 15.38683946    14
CTC2_L_00511029-06
1 10229U 25188YO  26075.70047454  .00000000  00000+0  00000-0 0  9998
2 10229  97.2000 336.0000 0000000   0.0000  33.0000 15.38683946    16
CTC2_L_00511029-07
1 10230U 23341JX  26075.70047454  .00000000  00000+0  00000-0 0  9999
2 10230  97.2000 336.0000 0000000   0.0000  78.0000 15.38683946    17
CTC2_L_00511029-08
1 10231U 24142SM  26075.70047454  .00000000  00000+0  00000-0 0  9990
2 10231  97.2000 336.0000 0000000   0.0000 123.0000 15.38683946    19
CTC2_L_00511030-01
1 10232U 23449ET  26075.70047454  .00000000  00000+0  00000-0 0  9990
2 10232  97.2000 348.0000 0000000   0.0000 174.0000 15.38683946    19
CTC2_L_00511030-02
1 10233U 23397JP  26075.70047454  .00000000  00000+0  00000-0 0  9993
2 10233  97.2000 348.0000 0000000   0.0000 219.0000 15.38683946    10
CTC2_L_00511030-03
1 10234U 24240OF  26075.70047454  .00000000  00000+0  00000-0 0  9992
2 10234  97.2000 348.0000 0000000   0.0000 264.0000 15.38683946    11
CTC2_L_00511030-04
1 10235U 26016KN  26075.70047454  .00000000  00000+0  00000-0 0  9996
2 10235  97.2000 348.0000 0000000   0.0000 309.0000 15.38683946    12
CTC2_L_00511030-05
1 10236U 23059LY  26075.70047454  .00000000  00000+0  00000-0 0  9991
2 10236  97.2000 348.0000 0000000   0.0000 354.0000 15.38683946    13
CTC2_L_00511030-06
1 10237U 22198SM  26075.70047454  .00000000  00000+0  00000-0 0  9995
2 10237  97.2000 348.0000 0000000   0.0000  39.0000 15.38683946    14
CTC2_L_00511030-07
1 10238U 23582ZF  26075.70047454  .00000000  00000+0  00000-0 0  9994
2 10238  97.2000 348.0000 0000000   0.0000  84.0000 15.38683946    15
CTC2_L_00511030-08
1 10239U 24465AZ  26075.70047454  .00000000  00000+0  00000-0 0  9996
2 10239  97.2000 348.0000 0000000   0.0000 129.0000 15.38683946    16
